STARLINK-32555          
1 61918U 24207G   26068.01253694  .00023928  00000+0  87581-3 0  9997
2 61918  43.0013 289.4467 0001954 265.2746  94.7882 15.27595258 74579
TRANSPORTER-12 OBJECT BT
1 62674U 25009BT  26068.71416991  .00013824  00000+0  51029-3 0  9998
2 62674  97.4094 151.5992 0003682 313.5044  46.5889 15.27872239121360
